#dP2020 10 26  0  0  0.00000000      97 __u+U IGS14 FIT  IAC
## 2129  86400.00000000   900.00000000 59148 0.0000000000000
+  123   C01C02C03C04C05C06C07C08C09C10C11C12C13C14C16C19C20
+        C21C22C23C24C25C26C27C28C29C30C32C33C34C35C36C37C38
+        C39C40C43C44C45C46C60E01E02E03E04E05E07E08E09E11E12
+        E13E14E15E18E19E21E24E25E26E27E30E31E33E36G01G02G03
+        G04G05G06G07G08G09G10G11G12G13G15G16G17G18G19G20G21
+        G22G23G24G25G26G27G28G29G30G31G32J01J02J03J07R01R02
+        R03R04R05R07R08R09R11R12R13R14R15R16R17R18R19R20R21
+        R22R23R24R26  0  0  0  0  0  0  0  0  0  0  0  0  0
++        13 13 13 15 12  8  8  8  8  8  7  7  8  7  8  7  7
++         7  7  7  7  7  7  8  7  7  7  8  8  7  7  7  8 13
++        10  8 10  8  8  9  0  4  4  4  4  4  4  4  4  4  4
++         4  4  4  4  4  4  4  4  4  4  5  4  4  4  3  3  3
++         3  3  3  3  3  3  3  3  3  3  3  3  3  3  3  3  3
++         3  3  3  3  3  3  3  3  3  3  3  9 10  8 13  6  5
++         5  5  5  5  5  5  5  5  6  5  5  6  5  5  6  6  5
++         6  5  5  0  0  0  0  0  0  0  0  0  0  0  0  0  0
%c M  cc GPS ccc cccc cccc cccc cccc ccccc ccccc ccccc ccccc
%c cc cc ccc ccc cccc cccc cccc cccc ccccc ccccc ccccc ccccc
%f  1.2500000  1.025000000  0.00000000000  0.000000000000000
%f  0.0000000  0.000000000  0.00000000000  0.000000000000000
%i    0    0    0    0      0      0      0      0         0
%i    0    0    0    0      0      0      0      0         0
/* INFORMATION & ANALYSIS CENTER (IAC)            FINAL DATA
/* S/V CLOCKS ARE ALIGNED TO GNSS TIME                      
/* G:C1WC2W R:C1PC2P E:C1XC5X C:C2IC6I J:C1CC2S             
/* PCV:IGS14_2118 OL/AL:FES2004  NONE     YN ORB:CoN CLK:CoN
*  2020 10 26  3 30  0.00000000
PC01 -34294.723916  24467.674551   -482.321589   -627.292410
PC02   4425.313621  41945.892738   1023.953610    785.337796
PC03 -14875.085310  39462.866427    977.753311    806.912594
PC04 -39618.859746  14353.939106   -244.937712   -251.856960
PC05  21928.682338  36002.250550   1237.775879   -177.524518
PC06 -13744.841958  37332.685182  15045.002803     69.892473
PC07 -13466.961149  22575.361093 -32719.219245   -132.898041
PC08 -25210.708479  26593.899455  20604.588919   -639.278886
PC09  -4751.857899  42115.386057   -359.503605    896.472680
PC10   2666.350313  29029.183938 -30111.034866   -155.866862
PC11  -2381.293156  26699.863135   7711.085187   -709.218979
PC12 -13041.886210  22468.688854 -10103.335781    575.336193
PC13 -11370.196533  27753.126373  29588.441928    713.442262
PC14   6988.301966  22078.163396  15549.903220    412.969275
PC16 -11088.399746  38918.586620  12267.955114   -600.396458
PC19 -15144.332135 -22186.871414  -7568.805554    595.137637
PC20    879.776723 -18994.191802 -20428.225154   -870.379981
PC21 -17118.552218   4250.886602  21636.040825   -705.703473
PC22 -22779.666392 -12659.377839  10007.450027   -779.462738
PC23  24546.024628   3049.399083 -12913.615394   -906.619274
PC24 -12381.465354  16870.592400 -18446.974735   -720.517370
PC25   9589.862859  13738.128879 -22319.814836   -804.246108
PC26 -25329.321125  10742.247312  -4556.022591    880.721128
PC27  16467.409289 -14393.955580  17310.269464    421.949606
PC28  14681.848229   6202.698550  22910.250398   -153.758549
PC29  -5186.698843 -22923.165189 -15053.398241    302.441197
PC30   7871.637597 -26689.456283   2005.513875    394.867170
PC32  17096.972345  -4372.813446 -21611.504338 999999.999999
PC33  15163.565350  22127.553985   7663.841932   -819.960674
PC34  -7594.703005  26824.171799  -1433.703269   -823.634964
PC35 -14871.102841  -5967.899110 -22846.034578   -590.222028
PC36  -8943.990201 -14091.775268  22394.782126   -862.020277
PC37  25873.678354  -9751.873989   3870.782169   -889.053499
PC38 -20696.255350  28654.763079  22877.385622    108.318572
PC39  -6096.074405  40799.522359   9013.143719     24.335731
PC40  -1118.636597  24959.695103 -33896.599484     94.572551
PC43   4860.917376  23219.704460  14705.399197   -433.210002
PC44 -16131.477510  14735.477065 -17379.184346   -149.680175
PC45 -24534.826245  -2914.869339  12963.183403 999999.999999
PC46  11690.131320 -16905.595613  18906.310373    575.127549
PC60   7319.143346  41512.025807   -593.215567 999999.999999
PE01   1220.301151 -16513.337286  24544.730696   -969.191459
PE02  -1070.536479  16528.368182 -24524.806990    171.671336
PE03   1839.821140  27655.581623  10363.164652   -357.865922
PE04 -14464.586702 -24595.057605   7877.900731   -634.697424
PE05 -12046.242946  14543.389206  22788.157498   -334.781206
PE07  18776.852100   6936.110389 -21804.111803   -453.498317
PE08  14696.179290  24354.385752  -8171.312098   6101.136338
PE09 -18686.997338  -6757.320667  21940.878524   5886.541102
PE11 -20918.006913   3758.100338 -20610.426927   6510.216579
PE12  -7951.656771 -15137.092405 -24159.534392   5538.223503
PE13  20741.362198  -3579.775807  20820.173875    405.147892
PE14   7342.338897 -22936.300993   9988.568428  -1203.171183
PE15   8076.564211  14945.897707  24245.078911    846.747301
PE18 -16239.707699  16646.618869 -20163.264781  -1314.282914
PE19   -226.226826 -26907.802136 -12333.360345    112.315205
PE21  21104.765441  -8809.233274  18801.237528   -628.563774
PE24 -29175.357431  -4697.701805  -1489.205809   -548.977040
PE25 -21234.086563   8702.259381 -18680.747199   -518.968174
PE26  21164.713707 -20194.994833   4574.507893   2570.307899
PE27  29235.079113   4232.571874   1969.315468    106.056912
PE30  19551.898922  15057.354148 -16354.301606   3475.787639
PE31 -20127.405511 -14730.724769  15954.156980   -475.167553
PE33   9346.946742 -24681.245093 -13402.344081   -462.972620
PE36 -21208.297093  19986.514821  -5162.415032    489.552100
PG01   9743.908129 -19405.550662 -15301.320840    813.097944
PG02 -21477.155551  15166.806606  -3014.664891   -534.380792
PG03  -1141.415471 -16391.402029 -20970.592798   -336.288271
PG04   1158.444764 -26182.657923  -4162.191223   -149.020655
PG05 -19186.748372   5510.427103  17457.060774    -24.305281
PG06 -20991.777761   1823.778404 -16136.641232   -335.401681
PG07  -7213.558777 -13855.422698  21777.376728   -401.121087
PG08   6843.888052 -21661.012710  13549.273836    -52.769689
PG09  -8044.324148 -24210.546989   7293.799073   -305.153833
PG10  23937.612488  11762.612570   1389.429166   -488.908612
PG11  10811.653258 -24433.617232  -1882.940764   -126.615526
PG12  -2283.170912  15464.940994 -21726.300835     49.083528
PG13 -12958.731857  14087.209361  18233.709970     58.399605
PG15  -4472.603271  22795.013612  12190.772309   -194.421636
PG16  18768.318041  -3702.667763  18397.242470   -227.511569
PG17 -13723.750273 -10050.938139 -19978.676868    345.024063
PG18   7921.686973  12871.616474  21829.540067    312.532413
PG19 -14792.062352  -2878.863978 -22161.978045    -86.867948
PG20  17921.884792  15037.048637  12737.813809    526.268655
PG21  19529.571458 -17603.142943  -1483.647958     61.626268
PG22   7412.683148 -14020.859586 -21099.957101   -738.633230
PG23  18311.833566  15902.047622  10823.825585     91.512352
PG24 -11554.665693  20720.532127 -11754.331198    -20.274330
PG25  11118.295749  17758.735610 -16719.395615     11.334216
PG26  25021.204193   3458.038755   8569.359905    301.349073
PG27  12640.754372 -11120.659476  20304.687055   -426.846271
PG28 -22927.579585 -13218.609731    240.211282    663.313817
PG29   4255.962354  25645.263086   5287.781311   -223.249568
PG30 -16132.953373  -6857.358401  20059.205732   -324.160317
PG31  22472.394393  -3184.944050 -14223.173196    -77.333745
PG32  14971.742522   9638.143542 -19669.173743    361.373039
PJ01 -25816.044091  21925.818128  30093.429684   -338.692753
PJ02 -31954.054436  16264.069778 -17640.463313     -5.730017
PJ03 -22330.915734  31112.570434 -13027.994111     -2.359211
PJ07 -25358.997377  33674.986637     -9.206580      0.028372
PR01   9677.347394  -5526.643210 -22951.005645     69.628173
PR02  -5903.464363 -20402.162947 -14048.166151    451.591193
PR03 -15495.618626 -20031.250857   2839.350709     24.442780
PR04 -16060.861238  -8416.901929  17955.478258     59.291628
PR05  -7646.744227   7940.115074  23006.775258     59.928387
PR07  15657.122543  19884.167072  -3348.603337    -40.983539
PR08  16133.734100   8435.085614 -17831.283242    -55.342771
PR09  -2796.082172  11413.231822 -22625.527883      4.294613
PR11  25327.108100   -978.525827  -2619.578040    -42.412936
PR12  19961.805708  -8213.954751  13640.831593    174.853318
PR13   3039.304378 -11165.208228  22722.003714    -45.726557
PR14 -15971.877970  -7539.284786  18427.888980     57.017909
PR15 -25256.564629    374.376242   3576.860849    106.995532
PR16 -19115.937386   8980.068075 -14224.744508     -7.594079
PR17  -3818.187969 -14073.170665 -20932.663295    368.948902
PR18 -12310.857558   2555.191230 -22186.040454     53.995723
PR19 -14742.079060  16907.657866 -12128.898174   -116.985837
PR20  -8105.010091  23010.432428   7514.316175   -425.028562
PR21   4418.363774  13082.635273  21439.857247   -161.622616
PR22  12630.479410  -3612.249471  21834.079288    -79.047532
PR23  12977.343126 -21369.762005   5079.177193    340.749040
PR24   7334.894249 -23057.932473  -8094.590296     18.221480
PR26 -10362.268959  23209.024594   1924.479107 999999.999999
EOF
